start=new Date('2022-11-18T00:00:00.000Z').valueOf();
sats=[{"ECCENTRICITY":"0.00014010","MEAN_ANOMALY":"279.2214","EPHEMERIS_TYPE":"0","CLASSIFICATION_TYPE":"U","TLE_LINE1":"1 46075U 20055BA  22321.77564292  .00000246  00000-0  35434-4 0  9991","ELEMENT_SET_NO":"999","EPOCH":"2022-11-17T18:36:55.548288","FILE":"3661914","OBJECT_TYPE":"PAYLOAD","APOAPSIS":"548.177","GP_ID":"218092266","REF_FRAME":"TEME","SEMIMAJOR_AXIS":"6925.342","COUNTRY_CODE":"US","MEAN_MOTION_DOT":"0.00000246","LAUNCH_DATE":"2020-08-07","DECAY_DATE":null,"TIME_SYSTEM":"UTC","CENTER_NAME":"EARTH","PERIAPSIS":"546.237","RCS_SIZE":"LARGE","MEAN_ELEMENT_THEORY":"SGP4","RA_OF_ASC_NODE":"119.1572","INCLINATION":"53.0565","MEAN_MOTION_DDOT":"0.0000000000000","MEAN_MOTION":"15.06402148","NORAD_CAT_ID":"46075","BSTAR":"0.00003543400000","ARG_OF_PERICENTER":"80.8933","OBJECT_ID":"2020-055BA","SITE":"AFETR","OBJECT_NAME":"STARLINK-1551","PERIOD":"95.592","REV_AT_EPOCH":"12724","TLE_LINE2":"2 46075  53.0565 119.1572 0001401  80.8933 279.2214 15.06402148127245"},{"EPOCH":"2022-11-17T14:27:23.301792","FILE":"3661914","GP_ID":"218092516","APOAPSIS":"548.236","OBJECT_TYPE":"PAYLOAD","REF_FRAME":"TEME","ECCENTRICITY":"0.00016870","MEAN_ANOMALY":"291.0715","TLE_LINE1":"1 46076U 20055BB  22321.60235303  .00005454  00000-0  38428-3 0  9993","CLASSIFICATION_TYPE":"U","ELEMENT_SET_NO":"999","EPHEMERIS_TYPE":"0","MEAN_ELEMENT_THEORY":"SGP4","RA_OF_ASC_NODE":"119.9406","MEAN_MOTION_DDOT":"0.0000000000000","INCLINATION":"53.0539","MEAN_MOTION_DOT":"0.00005454","COUNTRY_CODE":"US","SEMIMAJOR_AXIS":"6925.202","DECAY_DATE":null,"TIME_SYSTEM":"UTC","LAUNCH_DATE":"2020-08-07","CENTER_NAME":"EARTH","PERIAPSIS":"545.899","RCS_SIZE":"LARGE","OBJECT_ID":"2020-055BB","ARG_OF_PERICENTER":"69.0454","OBJECT_NAME":"STARLINK-1552","SITE":"AFETR","PERIOD":"95.589","MEAN_MOTION":"15.06447712","NORAD_CAT_ID":"46076","BSTAR":"0.00038428000000","TLE_LINE2":"2 46076  53.0539 119.9406 0001687  69.0454 291.0715 15.06447712127204","REV_AT_EPOCH":"12720"},{"TLE_LINE2":"2 46077  53.0543 119.7259 0001492  89.4051 270.7109 15.06397566127186","REV_AT_EPOCH":"12718","NORAD_CAT_ID":"46077","MEAN_MOTION":"15.06397566","BSTAR":"0.00008390600000","OBJECT_NAME":"STARLINK-1559","SITE":"AFETR","OBJECT_ID":"2020-055BC","ARG_OF_PERICENTER":"89.4051","PERIOD":"95.592","LAUNCH_DATE":"2020-08-07","DECAY_DATE":null,"TIME_SYSTEM":"UTC","CENTER_NAME":"EARTH","MEAN_MOTION_DOT":"0.00000968","COUNTRY_CODE":"US","SEMIMAJOR_AXIS":"6925.356","RCS_SIZE":"LARGE","PERIAPSIS":"546.188","RA_OF_ASC_NODE":"119.7259","MEAN_ELEMENT_THEORY":"SGP4","MEAN_MOTION_DDOT":"0.0000000000000","INCLINATION":"53.0543","TLE_LINE1":"1 46077U 20055BC  22321.65033147  .00000968  00000-0  83906-4 0  9998","ELEMENT_SET_NO":"999","CLASSIFICATION_TYPE":"U","EPHEMERIS_TYPE":"0","MEAN_ANOMALY":"270.7109","ECCENTRICITY":"0.00014920","FILE":"3661914","EPOCH":"2022-11-17T15:36:28.639008","REF_FRAME":"TEME","APOAPSIS":"548.254","GP_ID":"218093267","OBJECT_TYPE":"PAYLOAD"},{"BSTAR":"0.00016399000000","MEAN_MOTION":"15.06403182","NORAD_CAT_ID":"46078","PERIOD":"95.592","ARG_OF_PERICENTER":"58.5727","OBJECT_ID":"2020-055BD","SITE":"AFETR","OBJECT_NAME":"STARLINK-1563","REV_AT_EPOCH":"12719","TLE_LINE2":"2 46078  53.0541 119.8170 0001731  58.5727 301.5431 15.06403182127195","ECCENTRICITY":"0.00017310","MEAN_ANOMALY":"301.5431","EPHEMERIS_TYPE":"0","CLASSIFICATION_TYPE":"U","TLE_LINE1":"1 46078U 20055BD  22321.62820254  .00002162  00000-0  16399-3 0  9998","ELEMENT_SET_NO":"999","OBJECT_TYPE":"PAYLOAD","APOAPSIS":"548.403","GP_ID":"218094009","REF_FRAME":"TEME","EPOCH":"2022-11-17T15:04:36.699456","FILE":"3661914","PERIAPSIS":"546.005","RCS_SIZE":"LARGE","COUNTRY_CODE":"US","SEMIMAJOR_AXIS":"6925.339","MEAN_MOTION_DOT":"0.00002162","CENTER_NAME":"EARTH","DECAY_DATE":null,"LAUNCH_DATE":"2020-08-07","TIME_SYSTEM":"UTC","INCLINATION":"53.0541","MEAN_MOTION_DDOT":"0.0000000000000","MEAN_ELEMENT_THEORY":"SGP4","RA_OF_ASC_NODE":"119.8170"},{"TLE_LINE2":"2 46079  53.0551 119.8541 0001443  79.9880 280.1272 15.06398341127225","REV_AT_EPOCH":"12722","SITE":"AFETR","OBJECT_NAME":"STARLINK-1566","ARG_OF_PERICENTER":"79.9880","OBJECT_ID":"2020-055BE","PERIOD":"95.592","NORAD_CAT_ID":"46079","MEAN_MOTION":"15.06398341","BSTAR":"0.00001532800000","RA_OF_ASC_NODE":"119.8541","MEAN_ELEMENT_THEORY":"SGP4","INCLINATION":"53.0551","MEAN_MOTION_DDOT":"0.0000000000000","LAUNCH_DATE":"2020-08-07","DECAY_DATE":null,"CENTER_NAME":"EARTH","TIME_SYSTEM":"UTC","SEMIMAJOR_AXIS":"6925.354","COUNTRY_CODE":"US","MEAN_MOTION_DOT":"-0.00000053","RCS_SIZE":"LARGE","PERIAPSIS":"546.219","FILE":"3661914","EPOCH":"2022-11-17T14:54:00.380736","REF_FRAME":"TEME","OBJECT_TYPE":"PAYLOAD","APOAPSIS":"548.218","GP_ID":"218092767","EPHEMERIS_TYPE":"0","TLE_LINE1":"1 46079U 20055BE  22321.62083774 -.00000053  00000-0  15328-4 0  9997","CLASSIFICATION_TYPE":"U","ELEMENT_SET_NO":"999","MEAN_ANOMALY":"280.1272","ECCENTRICITY":"0.00014430"},{"TLE_LINE2":"2 46080  53.0558 118.8400 0001542  83.5404 276.5760 15.06391949127239","REV_AT_EPOCH":"12723","OBJECT_ID":"2020-055BF","ARG_OF_PERICENTER":"83.5404","OBJECT_NAME":"STARLINK-1568","SITE":"AFETR","PERIOD":"95.593","MEAN_MOTION":"15.06391949","NORAD_CAT_ID":"46080","BSTAR":"-0.00005329300000","MEAN_ELEMENT_THEORY":"SGP4","RA_OF_ASC_NODE":"118.8400","MEAN_MOTION_DDOT":"0.0000000000000","INCLINATION":"53.0558","MEAN_MOTION_DOT":"-0.00001075","SEMIMAJOR_AXIS":"6925.373","COUNTRY_CODE":"US","DECAY_DATE":null,"TIME_SYSTEM":"UTC","LAUNCH_DATE":"2020-08-07","CENTER_NAME":"EARTH","PERIAPSIS":"546.170","RCS_SIZE":"LARGE","EPOCH":"2022-11-17T20:16:26.107104","FILE":"3661914","GP_ID":"218093017","APOAPSIS":"548.306","OBJECT_TYPE":"PAYLOAD","REF_FRAME":"TEME","ECCENTRICITY":"0.00015420","MEAN_ANOMALY":"276.5760","TLE_LINE1":"1 46080U 20055BF  22321.84474661 -.00001075  00000-0 -53293-4 0  9991","CLASSIFICATION_TYPE":"U","ELEMENT_SET_NO":"999","EPHEMERIS_TYPE":"0"},{"MEAN_ELEMENT_THEORY":"SGP4","RA_OF_ASC_NODE":"119.8745","INCLINATION":"53.0547","MEAN_MOTION_DDOT":"0.0000000000000","COUNTRY_CODE":"US","SEMIMAJOR_AXIS":"6925.387","MEAN_MOTION_DOT":"-0.00000278","TIME_SYSTEM":"UTC","DECAY_DATE":null,"LAUNCH_DATE":"2020-08-07","CENTER_NAME":"EARTH","PERIAPSIS":"545.910","RCS_SIZE":"LARGE","EPOCH":"2022-11-17T14:43:24.611520","FILE":"3661914","OBJECT_TYPE":"PAYLOAD","GP_ID":"218093768","APOAPSIS":"548.594","REF_FRAME":"TEME","MEAN_ANOMALY":"317.7870","ECCENTRICITY":"0.00019380","EPHEMERIS_TYPE":"0","TLE_LINE1":"1 46081U 20055BG  22321.61347930 -.00000278  00000-0  27649-6 0  9996","ELEMENT_SET_NO":"999","CLASSIFICATION_TYPE":"U","REV_AT_EPOCH":"12721","TLE_LINE2":"2 46081  53.0547 119.8745 0001938  42.3269 317.7870 15.06387531127212","ARG_OF_PERICENTER":"42.3269","OBJECT_ID":"2020-055BG","SITE":"AFETR","OBJECT_NAME":"STARLINK-1571","PERIOD":"95.593","MEAN_MOTION":"15.06387531","NORAD_CAT_ID":"46081","BSTAR":"0.00000027649000"},{"ECCENTRICITY":"0.00013800","MEAN_ANOMALY":"257.8149","EPHEMERIS_TYPE":"0","ELEMENT_SET_NO":"999","TLE_LINE1":"1 46082U 20055BH  22321.76827642 -.00000157  00000-0  83264-5 0  9996","CLASSIFICATION_TYPE":"U","EPOCH":"2022-11-17T18:26:19.082688","FILE":"3661914","OBJECT_TYPE":"PAYLOAD","APOAPSIS":"548.168","GP_ID":"218093510","REF_FRAME":"TEME","COUNTRY_CODE":"US","SEMIMAJOR_AXIS":"6925.347","MEAN_MOTION_DOT":"-0.00000157","DECAY_DATE":null,"CENTER_NAME":"EARTH","LAUNCH_DATE":"2020-08-07","TIME_SYSTEM":"UTC","PERIAPSIS":"546.256","RCS_SIZE":"LARGE","MEAN_ELEMENT_THEORY":"SGP4","RA_OF_ASC_NODE":"119.1962","INCLINATION":"53.0548","MEAN_MOTION_DDOT":"0.0000000000000","MEAN_MOTION":"15.06400553","NORAD_CAT_ID":"46082","BSTAR":"0.00000832640000","ARG_OF_PERICENTER":"102.2995","OBJECT_ID":"2020-055BH","SITE":"AFETR","OBJECT_NAME":"STARLINK-1578","PERIOD":"95.592","REV_AT_EPOCH":"12724","TLE_LINE2":"2 46082  53.0548 119.1962 0001380 102.2995 257.8149 15.06400553127247"},{"REV_AT_EPOCH":"12721","TLE_LINE2":"2 46083  53.0549 119.9243 0001385  91.4363 268.6785 15.06399952127215","BSTAR":"0.00001331300000","NORAD_CAT_ID":"46083","MEAN_MOTION":"15.06399952","PERIOD":"95.592","SITE":"AFETR","OBJECT_NAME":"STARLINK-1579","ARG_OF_PERICENTER":"91.4363","OBJECT_ID":"2020-055BJ","RCS_SIZE":"LARGE","PERIAPSIS":"546.255","LAUNCH_DATE":"2020-08-07","DECAY_DATE":null,"CENTER_NAME":"EARTH","TIME_SYSTEM":"UTC","SEMIMAJOR_AXIS":"6925.349","COUNTRY_CODE":"US","MEAN_MOTION_DOT":"-0.00000083","INCLINATION":"53.0549","MEAN_MOTION_DDOT":"0.0000000000000","RA_OF_ASC_NODE":"119.9243","MEAN_ELEMENT_THEORY":"SGP4","EPHEMERIS_TYPE":"0","TLE_LINE1":"1 46083U 20055BJ  22321.60609313 -.00000083  00000-0  13313-4 0  9998","ELEMENT_SET_NO":"999","CLASSIFICATION_TYPE":"U","MEAN_ANOMALY":"268.6785","ECCENTRICITY":"0.00013850","REF_FRAME":"TEME","OBJECT_TYPE":"PAYLOAD","GP_ID":"218092267","APOAPSIS":"548.173","FILE":"3661914","EPOCH":"2022-11-17T14:32:46.446432"},{"FILE":"3661693","EPOCH":"2022-11-17T05:47:18.527424","REF_FRAME":"TEME","OBJECT_TYPE":"PAYLOAD","APOAPSIS":"548.272","GP_ID":"218062595","EPHEMERIS_TYPE":"0","TLE_LINE1":"1 46117U 20057A   22321.24118666 -.00000014  00000-0  17927-4 0  9993","ELEMENT_SET_NO":"999","CLASSIFICATION_TYPE":"U","MEAN_ANOMALY":"300.7330","ECCENTRICITY":"0.00015070","RA_OF_ASC_NODE":"321.5594","MEAN_ELEMENT_THEORY":"SGP4","INCLINATION":"53.0579","MEAN_MOTION_DDOT":"0.0000000000000","CENTER_NAME":"EARTH","DECAY_DATE":null,"LAUNCH_DATE":"2020-08-18","TIME_SYSTEM":"UTC","COUNTRY_CODE":"US","SEMIMAJOR_AXIS":"6925.364","MEAN_MOTION_DOT":"-0.00000014","RCS_SIZE":"LARGE","PERIAPSIS":"546.185","SITE":"AFETR","OBJECT_NAME":"STARLINK-1585","ARG_OF_PERICENTER":"59.3808","OBJECT_ID":"2020-057A","PERIOD":"95.592","NORAD_CAT_ID":"46117","MEAN_MOTION":"15.06395098","BSTAR":"0.00001792700000","REV_AT_EPOCH":"12420","TLE_LINE2":"2 46117  53.0579 321.5594 0001507  59.3808 300.7330 15.06395098124206"}];
